1998-067XK              
1 65731U 98067XK  26022.45839841  .00177935  00000+0  10766-2 0  9999
2 65731  51.6253 289.1767 0004375 128.4787 231.6606 15.76510210 19543
YOTSUBA-KULOVER         
1 65941U 98067XN  26020.02445818  .00127352  00000+0  12200-2 0  9993
2 65941  51.6285 306.6936 0004326 132.7917 227.3443 15.65739151 15848
BOTAN                   
1 65942U 98067XP  26021.86948029  .00230928  00000+0  15020-2 0  9996
2 65942  51.6191 294.9954 0006689 128.0222 232.1381 15.74680416 16165
E-KAGAKU-1              
1 65943U 98067XQ  26021.87491671  .00124645  00000+0  11636-2 0  9991
2 65943  51.6287 297.3080 0002988 147.0300 213.0882 15.66399445 16136
HRC MONOBLOCK CAMERA    
1 66052U 98067XR  26021.99314108  .00054522  00000+0  73207-3 0  9994
2 66052  51.6298 300.3420 0000824  27.5149 332.5886 15.57379554 15109
HTV-X1                  
1 66174U 25241A   26022.17441205  .00016198  00000+0  29562-3 0  9995
2 66174  51.6328 302.3013 0007809  45.1395 315.0227 15.49548134   514
SZ-21 MODULE            
1 66515U 25246C   26022.35071008  .00035923  00000+0  35651-3 0  9992
2 66515  41.4761 127.8574 0003051 220.9583 139.1029 15.65040876 10806
SHENZHOU-22             
1 66645U 25272A   26022.30237278  .00025665  00000+0  30041-3 0  9993
2 66645  41.4671 130.1396 0010483 335.9522  24.0826 15.60894095267644
SOYUZ-MS 28             
1 66664U 25275A   26022.23890398  .00015740  00000+0  28748-3 0  9991
2 66664  51.6328 301.9816 0007710  45.6250 314.5369 15.49550203549137
DUPLEX                  
1 66906U 98067XS  26022.49507949  .00029359  00000+0  46813-3 0  9998
2 66906  51.6313 299.9430 0002036  44.0260 316.0892 15.52979009  7947
1998-067XT              
1 66907U 98067XT  26022.48710237  .00099657  00000+0  13011-2 0  9995
2 66907  51.6297 299.1400 0003393 103.7988 256.3382 15.57862932  7957
